[{"OBJECT_NAME":"TRANSPORTER-12 OBJECT BT","OBJECT_ID":"2025-009BT","EPOCH":"2026-03-09T17:08:24.281088","MEAN_MOTION":15.27872239,"ECCENTRICITY":0.00036816,"INCLINATION":97.4094,"RA_OF_ASC_NODE":151.5992,"ARG_OF_PERICENTER":313.5044,"MEAN_ANOMALY":46.5889,"EPHEMERIS_TYPE":0,"CLASSIFICATION_TYPE":"U","NORAD_CAT_ID":62674,"ELEMENT_SET_NO":999,"REV_AT_EPOCH":12136,"BSTAR":0.000510288,"MEAN_MOTION_DOT":0.00013824,"MEAN_MOTION_DDOT":0},{"OBJECT_NAME":"STARLINK-33878","OBJECT_ID":"2025-093AC","EPOCH":"2026-03-09T09:13:39.594720","MEAN_MOTION":15.27618604,"ECCENTRICITY":0.00020476,"INCLINATION":43.001,"RA_OF_ASC_NODE":79.7369,"ARG_OF_PERICENTER":248.751,"MEAN_ANOMALY":111.3123,"EPHEMERIS_TYPE":0,"CLASSIFICATION_TYPE":"U","NORAD_CAT_ID":63862,"ELEMENT_SET_NO":999,"REV_AT_EPOCH":4791,"BSTAR":0.001294161,"MEAN_MOTION_DOT":0.00035565,"MEAN_MOTION_DDOT":0}]
